SCD 1                   
1 22490U 93009B   19021.89135800  .00000230  00000-0  13443-4 0  9999
2 22490  24.9704 309.0977 0043011  17.2363  22.6738 14.44541112370095
TECHSAT 1B (GO-32)      
1 25397U 98043D   19021.74803485 -.00000020  00000-0  10230-4 0  9995
2 25397  98.6745 323.8061 0002359  97.5456 262.5991 14.23658845 66827
SCD 2                   
1 25504U 98060A   19020.81346493  .00000194  00000-0  37846-5 0  9996
2 25504  24.9946 162.5441 0017377  31.8796  99.2781 14.44059095 68993
LANDSAT 7               
1 25682U 99020A   19020.91854051 -.00000021  00000-0  53139-5 0  9998
2 25682  98.1492  91.7475 0001477  83.4195 276.7160 14.57146026 51450
DLR-TUBSAT              
1 25757U 99029B   19021.73569823 -.00000025  00000-0  52565-5 0  9997
2 25757  98.4113 303.7095 0013629 320.0344  39.9847 14.51395532 41113
TERRA                   
1 25994U 99068A   19020.79716359  .00000027  00000-0  16089-4 0  9997
2 25994  98.2092  97.5007 0001416 108.0174 252.1163 14.57115744 15513
MAROC-TUBSAT            
1 27004U 01056D   19020.96026792 -.00000044  00000-0 -48457-6 0  9992
2 27004  99.4398 157.2408 0019003 264.3940 203.8986 13.70132689855852
AQUA                    
1 27424U 02022A   19021.85898469  .00000025  00000-0  15694-4 0  9991
2 27424  98.2195 324.8369 0002615 107.9098 317.2137 14.57104812889279
IRS-P6 (RESOURCESAT-1)  
1 28051U 03046A   19020.79979881 -.00000026  00000-0  60987-5 0  9993
2 28051  98.5339 100.5221 0059001 109.5113 251.2453 14.34142247792766
SHIYAN 1 (SY-1)         
1 28220U 04012A   19020.86469282 -.00000572  00000-0 -41329-4 0  9997
2 28220  97.7784 343.0593 0013314 349.9009  10.1944 14.99722708803617
FORMOSAT-2 (ROCSAT 2)   
1 28254U 04018A   19018.27309439 -.00000041  00000-0  70762-6 0  9994
2 28254  98.7740  68.5835 0002379 335.2377  67.0903 14.00625903749807
AURA                    
1 28376U 04026A   19021.85215572  .00000033  00000-0  17479-4 0  9994
2 28376  98.2201 326.9886 0001677  83.9032 276.2357 14.57106677772314
IRS-P5 (CARTOSAT-1)     
1 28649U 05017A   19021.87573549  .00000057  00000-0  13277-4 0  9999
2 28649  97.8011  94.9856 0001079 359.1702   0.9477 14.83484870742515
SINAH 1                 
1 28893U 05043D   19020.93246714 -.00000027  00000-0  35755-5 0  9990
2 28893  97.9497 163.8466 0016484 115.6462 244.6444 14.61493757705310
EROS B                  
1 29079U 06014A   19021.88343054  .00001214  00000-0  53995-4 0  9999
2 29079  97.4054 142.4855 0001796 313.5079 162.1006 15.23399103707194
RESURS-DK 1             
1 29228U 06021A   19021.58134182  .00000036  00000-0  10088-4 0  9997
2 29228  69.9354  53.4936 0005099 206.4164 153.6737 15.02397842695718
ARIRANG-2 (KOMPSAT-2)   
1 29268U 06031A   19020.88214115  .00000058  00000-0  20568-4 0  9997
2 29268  98.0479 277.0160 0017713 338.8544  21.1930 14.62404419666158
LAPAN-TUBSAT            
1 29709U 07001A   19020.82717507  .00000019  00000-0  89104-5 0  9991
2 29709  97.7864 346.8730 0012914 355.3022   4.8067 14.82157995650285
CARTOSAT-2 (IRS-P7)     
1 29710U 07001B   19020.81270339  .00000200  00000-0  34407-4 0  9996
2 29710  97.9967  81.0636 0001673  87.6840 272.4548 14.78591794649299
HAIYANG-1B              
1 31113U 07010A   19020.84225401 -.00000046  00000-0 -12277-5 0  9991
2 31113  98.4782  73.6762 0012766 292.4165  67.5650 14.30213433614757
COSMO-SKYMED 1          
1 31598U 07023A   19020.85745353 -.00000316  00000-0 -33127-4 0  9992
2 31598  97.8850 206.3320 0001301  88.2949 271.8425 14.82153448628753
TERRASAR-X              
1 31698U 07026A   19020.59172086  .00003165  00000-0  15384-3 0  9991
2 31698  97.4447  29.9366 0001839  80.0939  14.3579 15.19156311643295
WORLDVIEW-1 (WV-1)      
1 32060U 07041A   19020.82610988  .00000557  00000-0  25617-4 0  9999
2 32060  97.3841 142.4818 0000717  75.5877  40.6100 15.24386579631019
YAOGAN 3                
1 32289U 07055A   19020.88305285  .00000122  00000-0  22628-4 0  9991
2 32289  98.0054  31.7998 0001160  93.5937 266.5389 14.80937543604972
COSMO-SKYMED 2          
1 32376U 07059A   19020.82366824  .00000358  00000-0  51564-4 0  9994
2 32376  97.8848 206.2989 0001260  89.1930 270.9429 14.82154590601494
RADARSAT-2              
1 32382U 07061A   19020.88724029  .00000011  00000-0  21080-4 0  9991
2 32382  98.5759  29.9698 0001286  80.6960 339.8822 14.29984530579575
CARTOSAT-2A             
1 32783U 08021A   19020.85888262 -.00000065  00000-0 -17222-5 0  9995
2 32783  97.9956  81.4896 0011779 225.2516 134.7731 14.78623188579245
JASON-2 (OSTM)          
1 33105U 08032A   19020.92010201 -.00000067  00000-0 -18403-4 0  9997
2 33105  66.0428 336.9258 0007955 273.0806 156.1237 12.87627377495551
RAPIDEYE 2              
1 33312U 08040A   19021.85413507  .00000025  00000-0  99379-5 0  9999
2 33312  97.7646  95.5231 0011075 250.9996 109.0026 14.79918316561696
RAPIDEYE 5              
1 33313U 08040B   19020.79569631 -.00000003  00000-0  62547-5 0  9996
2 33313  97.7735  93.2014 0017910 128.4641 231.8170 14.79919647561489
RAPIDEYE 1              
1 33314U 08040C   19020.78380220  .00000012  00000-0  84452-5 0  9999
2 33314  97.7656  94.2293 0022380 269.6804  90.1836 14.79922081561524
RAPIDEYE 3              
1 33315U 08040D   19020.82010567 -.00000010  00000-0  53122-5 0  9998
2 33315  97.7752  93.0871 0011270 201.0625 159.0116 14.79917596561495
RAPIDEYE 4              
1 33316U 08040E   19020.80793891 -.00000025  00000-0  33639-5 0  9992
2 33316  97.7785  92.8767 0011914 144.7452 215.4538 14.79916144561481
HUANJING 1A (HJ-1A)     
1 33320U 08041A   19020.83377646  .00000002  00000-0  75296-5 0  9996
2 33320  97.8612  83.2865 0024931 305.0882  54.7978 14.76990148558785
HUANJING 1B (HJ-1B)     
1 33321U 08041B   19020.80545728  .00000053  00000-0  14790-4 0  9999
2 33321  97.8679  84.9775 0033864 322.4807  37.4030 14.77090463558770
GEOEYE 1                
1 33331U 08042A   19020.82462460 -.00000006  00000-0  79074-5 0  9990
2 33331  98.1112  97.6694 0008729 225.2761 134.7675 14.64303139554369
THEOS                   
1 33396U 08049A   19020.87680667  .00000116  00000-0  75032-4 0  9994
2 33396  98.7059  90.4805 0001012 101.1566 347.7501 14.20043165534177
COSMO-SKYMED 3          
1 33412U 08054A   19020.81100179  .00000327  00000-0  47683-4 0  9993
2 33412  97.8848 206.2861 0001314  91.1762 268.9618 14.82158740553956
YAOGAN 4                
1 33446U 08061A   19020.88795674  .00000043  00000-0  12915-4 0  9990
2 33446  97.6545 355.4558 0015528 202.9002 157.1518 14.76920610546020
GOSAT (IBUKI)           
1 33492U 09002A   19021.87234834 -.00000088  00000-0 -72413-5 0  9994
2 33492  98.0212 137.1694 0001024  71.1163 289.0142 14.67572456535435
YAOGAN 6                
1 34839U 09021A   19021.70765256  .00000337  00000-0  15397-4 0  9992
2 34839  97.0695  53.6259 0029561  49.8165 310.5655 15.26415054541582
DEIMOS-1                
1 35681U 09041A   19020.86540591  .00000064  00000-0  17843-4 0  9994
2 35681  97.8841 267.5272 0000185 347.0588  13.0638 14.71767976508843
DUBAISAT-1              
1 35682U 09041B   19020.67150950  .00000072  00000-0  20141-4 0  9994
2 35682  97.7334 222.0418 0012305  88.5905 271.6709 14.68712470507705
OCEANSAT-2              
1 35931U 09051A   19020.85914973  .00000065  00000-0  27739-4 0  9997
2 35931  98.3023 117.9938 0002004 159.5307 200.5968 14.50849249493947
WORLDVIEW-2 (WV-2)      
1 35946U 09055A   19020.77624423 -.00000014  00000-0  98117-5 0  9990
2 35946  98.4500  99.1223 0002742  94.6202 265.5276 14.37604306487218
SMOS                    
1 36036U 09059A   19021.57697225  .00000083  00000-0  40240-4 0  9992
2 36036  98.4415 210.9470 0001047  83.6699 276.4609 14.39754457484567
YAOGAN 7                
1 36110U 09069A   19021.88602782  .00000043  00000-0  14358-4 0  9991
2 36110  98.2621 201.5133 0025398  53.1054 307.2508 14.75175789490935
TANDEM-X                
1 36605U 10030A   19020.66587884  .00002553  00000-0  12469-3 0  9998
2 36605  97.4441  30.0105 0001940  76.4300  63.3265 15.19155328476040
CARTOSAT-2B             
1 36795U 10035A   19020.76007745 -.00002719  00000-0 -36395-3 0  9997
2 36795  97.9925  81.0766 0013316 308.6711  51.3559 14.78611934460272
YAOGAN 10               
1 36834U 10038A   19020.85009493  .00000038  00000-0  11759-4 0  9994
2 36834  97.9616  22.1325 0001228  80.5633 279.5717 14.80895934456719
COSMO-SKYMED 4          
1 37216U 10060A   19020.77305953 -.00000022  00000-0  38300-5 0  9991
2 37216  97.8853 206.2479 0001366  77.3588 282.7783 14.82152998444036
RESOURCESAT-2           
1 37387U 11015A   19020.70851014 -.00000042  00000-0  68696-6 0  9992
2 37387  98.7335  97.5574 0004650  95.6634 264.5073 14.21618220402448
HAIYANG 2A              
1 37781U 11043A   19020.88837166 -.00000019  00000-0  24159-4 0  9990
2 37781  99.3215  32.3838 0000131  97.5466 262.5697 13.78720409374277
RASAT                   
1 37791U 11044D   19020.79934772  .00000004  00000-0  98031-5 0  9997
2 37791  98.1220 115.6504 0023348  87.2700 273.1170 14.64700402397050
MEGHA-TROPIQUES         
1 37838U 11058A   19021.87788451  .00000302  00000-0  21545-4 0  9991
2 37838  19.9763 224.6301 0009434 343.2085  16.8007 14.09699113375560
SRMSAT                  
1 37841U 11058D   19021.88717527  .00000279  00000-0  83394-5 0  9996
2 37841  19.9704 204.7931 0011952  13.2214 124.2728 14.10623031375790
YAOGAN 13               
1 37941U 11072A   19020.85341531  .00000590  00000-0  32501-4 0  9996
2 37941  97.5184 313.5765 0003467  60.1205  24.0483 15.17827145396059
PLEIADES 1A             
1 38012U 11076F   19020.77068601 -.00000057  00000-0 -24718-5 0  9997
2 38012  98.1792  97.5722 0001120  85.8767 274.2555 14.58565366377780
ZIYUAN 1-02C (ZY 1-02C) 
1 38038U 11079A   19020.85971659  .00000022  00000-0  22032-4 0  9999
2 38038  98.2638  73.1107 0001354 111.7141 248.4183 14.35492167371090
